STARLINK-31408          
1 59240U 24049K   26068.23792891 -.00000268  00000+0 -21231-6 0  9994
2 59240  42.9985 146.3745 0001039 282.3363  77.7372 15.27566294112339
COSMOS 2576             
1 59773U 24092A   26068.82603826  .00015211  00000+0  56283-3 0  9991
2 59773  97.4253 186.0053 0005946 159.7731 200.3745 15.27760963101271
